NORAD_CAT_ID,OBJECT_NAME,OBJECT_TYPE,EPOCH,MEAN_MOTION,ECCENTRICITY,INCLINATION,RA_OF_ASC_NODE,ARG_OF_PERICENTER,MEAN_ANOMALY,BSTAR,MEAN_MOTION_DOT,MEAN_MOTION_DDOT,TLE_LINE0,TLE_LINE1,TLE_LINE2,SEMIMAJOR_AXIS,PERIOD,APOGEE,PERIGEE,DECAYED
53152.0,STARLINK-4045,PAYLOAD,2023-02-26 12:56:11,15.08875228,0.0001279,53.2175,94.3074,107.7852,252.328,0.0014381,0.00022696,0.0,0 STARLINK-4045,1 53152U 22083W   23057.53902460  .00022696  00000-0  14381-2 0  9991,2 53152  53.2175  94.3074 0001279 107.7852 252.3280 15.08875228 34215,6917.773,95.435,540.522,538.753,0.0
53152.0,STARLINK-4045,PAYLOAD,2023-02-26 19:17:44,15.08855167,0.0001413,53.2176,93.1173,91.3987,268.7167,0.00046348,7.099e-05,0.0,0 STARLINK-4045,1 53152U 22083W   23057.80398752  .00007099  00000-0  46348-3 0  9993,2 53152  53.2176  93.1173 0001413  91.3987 268.7167 15.08855167 34888,6917.834,95.437,540.677,538.722,0.0
53152.0,STARLINK-4045,PAYLOAD,2023-02-27 03:14:40,15.08844641,0.0002355,53.2175,91.6308,81.427,278.6989,0.00079146,0.00012332,0.0,0 STARLINK-4045,1 53152U 22083W   23058.13519281  .00012332  00000-0  79146-3 0  9990,2 53152  53.2175  91.6308 0002355  81.4270 278.6989 15.08844641 34934,6917.866,95.437,541.36,538.102,0.0
53152.0,STARLINK-4045,PAYLOAD,2023-02-27 11:11:36,15.0885424,0.0001324,53.2168,90.1446,92.3183,267.796,0.00095517,0.00014952,0.0,0 STARLINK-4045,1 53152U 22083W   23058.46638971  .00014952  00000-0  95517-3 0  9994,2 53152  53.2168  90.1446 0001324  92.3183 267.7960 15.08854240 34352,6917.837,95.437,540.618,538.786,0.0
53152.0,STARLINK-4045,PAYLOAD,2023-02-27 19:08:32,15.08869005,0.0001301,53.2172,88.6583,81.9043,278.2097,0.0030803,0.00049116,0.0,0 STARLINK-4045,1 53152U 22083W   23058.79759307  .00049116  00000-0  30803-2 0  9993,2 53152  53.2172  88.6583 0001301  81.9043 278.2097 15.08869005 34404,6917.792,95.436,540.557,538.757,0.0
53152.0,STARLINK-4045,PAYLOAD,2023-02-28 06:16:13,15.08857728,0.0001037,53.2172,86.5764,88.7841,271.327,0.0021451,0.00034033,0.0,0 STARLINK-4045,1 53152U 22083W   23059.26127302  .00034033  00000-0  21451-2 0  9991,2 53152  53.2172  86.5764 0001037  88.7841 271.3270 15.08857728 35103,6917.826,95.436,540.409,538.974,0.0
53152.0,STARLINK-4045,PAYLOAD,2023-02-28 09:27:00,15.08866917,0.000119,53.2171,85.9818,79.0056,281.107,0.0022826,0.00036253,0.0,0 STARLINK-4045,1 53152U 22083W   23059.39375156  .00036253  00000-0  22826-2 0  9990,2 53152  53.2171  85.9818 0001190  79.0056 281.1070 15.08866917 34494,6917.798,95.436,540.486,538.84,0.0
53152.0,STARLINK-4045,PAYLOAD,2023-02-28 18:59:19,15.08820942,0.0001385,53.2174,84.1976,94.6601,265.4549,-0.0011741,-0.00018915,0.0,0 STARLINK-4045,1 53152U 22083W   23059.79119456 -.00018915  00000-0 -11741-2 0  9994,2 53152  53.2174  84.1976 0001385  94.6601 265.4549 15.08820942 34559,6917.939,95.439,540.762,538.846,0.0
53152.0,STARLINK-4045,PAYLOAD,2023-03-01 07:42:25,15.08815548,0.0001654,53.2174,81.8182,90.8532,269.265,0.0012405,0.00019496,0.0,0 STARLINK-4045,1 53152U 22083W   23060.32112876  .00019496  00000-0  12405-2 0  9995,2 53152  53.2174  81.8182 0001654  90.8532 269.2650 15.08815548 35262,6917.955,95.439,540.964,538.676,0.0
53152.0,STARLINK-4045,PAYLOAD,2023-03-01 18:50:07,15.0883497,0.0001682,53.2175,79.7372,90.5613,269.5572,0.001565,0.00024703,0.0,0 STARLINK-4045,1 53152U 22083W   23060.78481425  .00024703  00000-0  15650-2 0  9996,2 53152  53.2175  79.7372 0001682  90.5613 269.5572 15.08834970 34702,6917.896,95.438,540.924,538.597,0.0
53152.0,STARLINK-4045,PAYLOAD,2023-03-02 12:19:21,15.08872435,0.0001724,53.2173,76.4647,97.8418,262.277,0.0014262,0.00022503,0.0,0 STARLINK-4045,1 53152U 22083W   23061.51344547  .00022503  00000-0  14262-2 0  9995,2 53152  53.2173  76.4647 0001724  97.8418 262.2770 15.08872435 34819,6917.781,95.436,540.839,538.454,0.0
53152.0,STARLINK-4045,PAYLOAD,2023-03-03 07:23:58,15.08882965,0.0001698,53.2178,72.898,101.202,258.9163,0.0020329,0.00032252,0.0,0 STARLINK-4045,1 53152U 22083W   23062.30831535  .00032252  00000-0  20329-2 0  9994,2 53152  53.2178  72.8980 0001698 101.2020 258.9163 15.08882965 35563,6917.749,95.435,540.789,538.439,0.0
53152.0,STARLINK-4045,PAYLOAD,2023-03-04 05:39:21,15.08890753,0.0001619,53.2183,68.7345,103.0517,257.0656,0.0025713,0.00040929,0.0,0 STARLINK-4045,1 53152U 22083W   23063.23566651  .00040929  00000-0  25713-2 0  9993,2 53152  53.2183  68.7345 0001619 103.0517 257.0656 15.08890753 35709,6917.725,95.434,540.71,538.47,0.0
53152.0,STARLINK-4045,PAYLOAD,2023-03-04 12:00:53,15.08910636,0.0001579,53.2186,67.5432,100.5144,259.6026,0.0024179,0.00038478,0.0,0 STARLINK-4045,1 53152U 22083W   23063.50061577  .00038478  00000-0  24179-2 0  9991,2 53152  53.2186  67.5432 0001579 100.5144 259.6026 15.08910636 35116,6917.664,95.433,540.622,538.437,0.0
53152.0,STARLINK-4045,PAYLOAD,2023-03-04 16:47:03,15.08844431,0.0003249,53.2185,66.6525,72.8862,287.2486,-0.00056192,-9.223e-05,0.0,0 STARLINK-4045,1 53152U 22083W   23063.69934869 -.00009223  00000-0 -56192-3 0  9993,2 53152  53.2185  66.6525 0003249  72.8862 287.2486 15.08844431 35770,6917.867,95.437,541.979,537.484,0.0
53152.0,STARLINK-4045,PAYLOAD,2023-03-05 03:54:46,15.08821492,0.0001477,53.2179,64.5714,74.3303,285.7852,0.0008503,0.00013264,0.0,0 STARLINK-4045,1 53152U 22083W   23064.16303312  .00013264  00000-0  85030-3 0  9990,2 53152  53.2179  64.5714 0001477  74.3303 285.7852 15.08821492 35848,6917.937,95.439,540.824,538.78,0.0
53152.0,STARLINK-4045,PAYLOAD,2023-03-05 08:40:55,15.08812386,0.00018,53.218,63.6812,75.1552,284.9639,0.0011486,0.00018025,0.0,0 STARLINK-4045,1 53152U 22083W   23064.36175785  .00018025  00000-0  11486-2 0  9996,2 53152  53.2180  63.6812 0001800  75.1552 284.9639 15.08812386 35244,6917.965,95.439,541.075,538.585,0.0
53152.0,STARLINK-4045,PAYLOAD,2023-03-05 16:37:51,15.0882318,0.000176,53.2187,62.1966,87.5083,272.611,0.00066662,0.00010332,0.0,0 STARLINK-4045,1 53152U 22083W   23064.69296122  .00010332  00000-0  66662-3 0  9991,2 53152  53.2187  62.1966 0001760  87.5083 272.6110 15.08823180 35923,6917.932,95.439,541.014,538.579,0.0
53152.0,STARLINK-4045,PAYLOAD,2023-03-06 05:20:56,15.08863521,0.0001723,53.2184,59.8125,69.8327,290.285,0.0018808,0.00029791,0.0,0 STARLINK-4045,1 53152U 22083W   23065.22287799  .00029791  00000-0  18808-2 0  9998,2 53152  53.2184  59.8125 0001723  69.8327 290.2850 15.08863521 36003,6917.808,95.436,540.865,538.482,0.0
53152.0,STARLINK-4045,PAYLOAD,2023-03-06 11:42:28,15.08882144,0.0001694,53.2186,58.6236,73.1363,286.9815,0.0018484,0.00029286,0.0,0 STARLINK-4045,1 53152U 22083W   23065.48783107  .00029286  00000-0  18484-2 0  9999,2 53152  53.2186  58.6236 0001694  73.1363 286.9815 15.08882144 35419,6917.752,95.435,540.788,538.445,0.0
53152.0,STARLINK-4045,PAYLOAD,2023-03-07 03:36:20,15.08830857,0.0001224,53.2186,55.6501,99.3664,260.7466,0.00075959,0.00011819,0.0,0 STARLINK-4045,1 53152U 22083W   23066.15024063  .00011819  00000-0  75959-3 0  9997,2 53152  53.2186  55.6501 0001224  99.3664 260.7466 15.08830857 36141,6917.908,95.438,540.62,538.927,0.0
53152.0,STARLINK-4045,PAYLOAD,2023-03-07 16:19:26,15.08815253,0.0001175,53.2185,53.2715,91.8879,268.2248,0.002332,0.00036996,0.0,0 STARLINK-4045,1 53152U 22083W   23066.68016490  .00036996  00000-0  23320-2 0  9997,2 53152  53.2185  53.2715 0001175  91.8879 268.2248 15.08815253 36224,6917.956,95.439,540.634,539.008,0.0
53152.0,STARLINK-4045,PAYLOAD,2023-03-08 05:02:32,15.08828237,0.0001818,53.2178,50.893,94.2874,265.8326,0.0015324,0.00024177,0.0,0 STARLINK-4045,1 53152U 22083W   23067.21009773  .00024177  00000-0  15324-2 0  9996,2 53152  53.2178  50.8930 0001818  94.2874 265.8326 15.08828237 36309,6917.916,95.438,541.039,538.524,0.0
53152.0,STARLINK-4045,PAYLOAD,2023-03-08 16:10:14,15.08835619,0.0001563,53.219,48.8117,90.7694,269.3478,0.0017328,0.00027394,0.0,0 STARLINK-4045,1 53152U 22083W   23067.67378466  .00027394  00000-0  17328-2 0  9994,2 53152  53.2190  48.8117 0001563  90.7694 269.3478 15.08835619 36371,6917.894,95.438,540.84,538.678,0.0
53152.0,STARLINK-4045,PAYLOAD,2023-03-08 22:31:47,15.0887764,0.0001259,53.2185,47.6213,97.7664,262.3471,0.0035837,0.00057269,0.0,0 STARLINK-4045,1 53152U 22083W   23067.93874061  .00057269  00000-0  35837-2 0  9994,2 53152  53.2185  47.6213 0001259  97.7664 262.3471 15.08877640 35785,6917.765,95.435,540.501,538.759,0.0
53152.0,STARLINK-4045,PAYLOAD,2023-03-09 22:22:32,15.08871011,0.0002105,53.2187,43.1621,89.6512,270.4722,0.0028729,0.00045771,0.0,0 STARLINK-4045,1 53152U 22083W   23068.93232114  .00045771  00000-0  28729-2 0  9999,2 53152  53.2187  43.1621 0002105  89.6512 270.4722 15.08871011 35936,6917.786,95.436,541.107,538.194,0.0
53152.0,STARLINK-4045,PAYLOAD,2023-03-10 03:08:41,15.0886598,0.0001151,53.2206,42.2708,100.9789,259.1332,0.0014163,0.0002234,0.0,0 STARLINK-4045,1 53152U 22083W   23069.13103690  .00022340  00000-0  14163-2 0  9992,2 53152  53.2206  42.2708 0001151 100.9789 259.1332 15.08865980 36599,6917.801,95.436,540.462,538.87,0.0
53152.0,STARLINK-4045,PAYLOAD,2023-03-10 22:13:16,15.08925467,0.000136,53.2194,38.7002,122.0625,238.05,0.001914,0.00030376,0.0,0 STARLINK-4045,1 53152U 22083W   23069.92588304  .00030376  00000-0  19140-2 0  9996,2 53152  53.2194  38.7002 0001360 122.0625 238.0500 15.08925467 36082,6917.619,95.432,540.425,538.543,0.0
53152.0,STARLINK-4045,PAYLOAD,2023-03-11 02:59:25,15.08915383,0.0001457,53.219,37.8105,42.1345,317.9759,0.0014344,0.00022661,0.0,0 STARLINK-4045,1 53152U 22083W   23070.12459654  .00022661  00000-0  14344-2 0  9994,2 53152  53.2190  37.8105 0001457  42.1345 317.9759 15.08915383 36742,6917.65,95.433,540.523,538.507,0.0
53152.0,STARLINK-4045,PAYLOAD,2023-03-11 07:45:35,15.0886849,0.0001595,53.2202,36.9168,97.2593,262.8581,-0.0017935,-0.0002874,0.0,0 STARLINK-4045,1 53152U 22083W   23070.32332346 -.00028740  00000-0 -17935-2 0  9999,2 53152  53.2202  36.9168 0001595  97.2593 262.8581 15.08868490 36774,6917.793,95.436,540.762,538.555,0.0
